{
  "type": "FeatureCollection",
  "features": [
    {
      "type": "Feature",
      "properties": {
        "norad_id": 41890,
        "name": "CYGFM07",
        "group": "weather",
        "lat": -23.923119345434525,
        "lon": -151.37333905478204,
        "alt_km": 411.73263386981307,
        "timestamp": "2025-12-17T15:50:09.419566+00:00",
        "meta_object_name": "CYGFM07",
        "meta_object_id": "2016-078G",
        "meta_epoch": "2025-12-17T07:08:29.320512",
        "meta_mean_motion": 15.50191785,
        "meta_eccentricity": 0.00101434,
        "meta_inclination": 34.9485,
        "meta_ra_of_asc_node": 351.5658,
        "meta_arg_of_pericenter": 254.5599,
        "meta_mean_anomaly": 105.4003,
        "meta_ephemeris_type": 0,
        "meta_classification_type": "U",
        "meta_norad_cat_id": 41890,
        "meta_element_set_no": 999,
        "meta_rev_at_epoch": 50066,
        "meta_bstar": 0.00032148884,
        "meta_mean_motion_dot": 0.00018747,
        "meta_mean_motion_ddot": 0,
        "tle_line1": "1 41890U 16078G   25351.29756158  .00018747  00000+0  32149-3 0  9991",
        "tle_line2": "2 41890  34.9485 351.5658 0010143 254.5599 105.4003 15.50191785500660"
      },
      "geometry": {
        "type": "Point",
        "coordinates": [
          -151.37333905478204,
          -23.923119345434525
        ]
      }
    },
    {
      "type": "Feature",
      "properties": {
        "norad_id": 41891,
        "name": "CYGFM03",
        "group": "weather",
        "lat": 29.044983104728544,
        "lon": 43.79765177484069,
        "alt_km": 417.418093495482,
        "timestamp": "2025-12-17T15:50:09.419578+00:00",
        "meta_object_name": "CYGFM03",
        "meta_object_id": "2016-078H",
        "meta_epoch": "2025-12-17T07:51:30.021120",
        "meta_mean_motion": 15.50089857,
        "meta_eccentricity": 0.00096605,
        "meta_inclination": 34.9439,
        "meta_ra_of_asc_node": 353.2914,
        "meta_arg_of_pericenter": 242.9368,
        "meta_mean_anomaly": 117.0368,
        "meta_ephemeris_type": 0,
        "meta_classification_type": "U",
        "meta_norad_cat_id": 41891,
        "meta_element_set_no": 999,
        "meta_rev_at_epoch": 50064,
        "meta_bstar": 0.00032066252,
        "meta_mean_motion_dot": 0.00018627,
        "meta_mean_motion_ddot": 0,
        "tle_line1": "1 41891U 16078H   25351.32743080  .00018627  00000+0  32066-3 0  9991",
        "tle_line2": "2 41891  34.9439 353.2914 0009660 242.9368 117.0368 15.50089857500648"
      },
      "geometry": {
        "type": "Point",
        "coordinates": [
          43.79765177484069,
          29.044983104728544
        ]
      }
    },
    {
      "type": "Feature",
      "properties": {
        "norad_id": 43010,
        "name": "FENGYUN 3D",
        "group": "weather",
        "lat": -59.36338603730829,
        "lon": -26.45535814434027,
        "alt_km": 834.0550434600436,
        "timestamp": "2025-12-17T15:50:09.419589+00:00",
        "meta_object_name": "FENGYUN 3D",
        "meta_object_id": "2017-072A",
        "meta_epoch": "2025-12-17T07:39:49.146048",
        "meta_mean_motion": 14.19686258,
        "meta_eccentricity": 0.00011407,
        "meta_inclination": 98.9888,
        "meta_ra_of_asc_node": 317.6981,
        "meta_arg_of_pericenter": 167.8183,
        "meta_mean_anomaly": 192.302,
        "meta_ephemeris_type": 0,
        "meta_classification_type": "U",
        "meta_norad_cat_id": 43010,
        "meta_element_set_no": 999,
        "meta_rev_at_epoch": 41918,
        "meta_bstar": 0.00014451715,
        "meta_mean_motion_dot": 2.6e-06,
        "meta_mean_motion_ddot": 0,
        "tle_line1": "1 43010U 17072A   25351.31931882  .00000260  00000+0  14452-3 0  9992",
        "tle_line2": "2 43010  98.9888 317.6981 0001140 167.8183 192.3020 14.19686258419185"
      },
      "geometry": {
        "type": "Point",
        "coordinates": [
          -26.45535814434027,
          -59.36338603730829
        ]
      }
    },
    {
      "type": "Feature",
      "properties": {
        "norad_id": 43013,
        "name": "NOAA 20 (JPSS-1)",
        "group": "weather",
        "lat": 81.16583510004145,
        "lon": -154.91301560858838,
        "alt_km": 817.9594019759452,
        "timestamp": "2025-12-17T15:50:09.419600+00:00",
        "meta_object_name": "NOAA 20 (JPSS-1)",
        "meta_object_id": "2017-073A",
        "meta_epoch": "2025-12-17T06:57:38.184192",
        "meta_mean_motion": 14.19526982,
        "meta_eccentricity": 0.00021565,
        "meta_inclination": 98.7604,
        "meta_ra_of_asc_node": 287.5371,
        "meta_arg_of_pericenter": 80.6372,
        "meta_mean_anomaly": 279.5047,
        "meta_ephemeris_type": 0,
        "meta_classification_type": "U",
        "meta_norad_cat_id": 43013,
        "meta_element_set_no": 999,
        "meta_rev_at_epoch": 41866,
        "meta_bstar": 5.7604186e-05,
        "meta_mean_motion_dot": 7.7e-07,
        "meta_mean_motion_ddot": 0,
        "tle_line1": "1 43013U 17073A   25351.29002528  .00000077  00000+0  57604-4 0  9992",
        "tle_line2": "2 43013  98.7604 287.5371 0002156  80.6372 279.5047 14.19526982418666"
      },
      "geometry": {
        "type": "Point",
        "coordinates": [
          -154.91301560858838,
          81.16583510004145
        ]
      }
    },
    {
      "type": "Feature",
      "properties": {
        "norad_id": 43226,
        "name": "GOES 17",
        "group": "weather",
        "lat": 0.24173785641636886,
        "lon": -125.4611958630657,
        "alt_km": 35776.9454520282,
        "timestamp": "2025-12-17T15:50:09.419613+00:00",
        "meta_object_name": "GOES 17",
        "meta_object_id": "2018-022A",
        "meta_epoch": "2025-12-17T04:20:21.725664",
        "meta_mean_motion": 1.00271253,
        "meta_eccentricity": 0.00031062,
        "meta_inclination": 0.4696,
        "meta_ra_of_asc_node": 89.1547,
        "meta_arg_of_pericenter": 190.6602,
        "meta_mean_anomaly": 141.8395,
        "meta_ephemeris_type": 0,
        "meta_classification_type": "U",
        "meta_norad_cat_id": 43226,
        "meta_element_set_no": 999,
        "meta_rev_at_epoch": 2859,
        "meta_bstar": 0,
        "meta_mean_motion_dot": -1.58e-06,
        "meta_mean_motion_ddot": 0,
        "tle_line1": "1 43226U 18022A   25351.18080701 -.00000158  00000+0  00000+0 0  9994",
        "tle_line2": "2 43226   0.4696  89.1547 0003106 190.6602 141.8395  1.00271253 28598"
      },
      "geometry": {
        "type": "Point",
        "coordinates": [
          -125.4611958630657,
          0.24173785641636886
        ]
      }
    },
    {
      "type": "Feature",
      "properties": {
        "norad_id": 43491,
        "name": "FENGYUN 2H",
        "group": "weather",
        "lat": -1.5506941184765488,
        "lon": 43.45800957760665,
        "alt_km": 35795.92659561989,
        "timestamp": "2025-12-17T15:50:09.419626+00:00",
        "meta_object_name": "FENGYUN 2H",
        "meta_object_id": "2018-050A",
        "meta_epoch": "2025-12-17T01:43:11.582112",
        "meta_mean_motion": 1.00271364,
        "meta_eccentricity": 0.0002472,
        "meta_inclination": 2.5619,
        "meta_ra_of_asc_node": 81.2842,
        "meta_arg_of_pericenter": 166.7945,
        "meta_mean_anomaly": 303.0285,
        "meta_ephemeris_type": 0,
        "meta_classification_type": "U",
        "meta_norad_cat_id": 43491,
        "meta_element_set_no": 999,
        "meta_rev_at_epoch": 2761,
        "meta_bstar": 0,
        "meta_mean_motion_dot": -1.07e-06,
        "meta_mean_motion_ddot": 0,
        "tle_line1": "1 43491U 18050A   25351.07166183 -.00000107  00000+0  00000+0 0  9990",
        "tle_line2": "2 43491   2.5619  81.2842 0002472 166.7945 303.0285  1.00271364 27615"
      },
      "geometry": {
        "type": "Point",
        "coordinates": [
          43.45800957760665,
          -1.5506941184765488
        ]
      }
    },
    {
      "type": "Feature",
      "properties": {
        "norad_id": 43689,
        "name": "METOP-C",
        "group": "weather",
        "lat": -79.73836293478008,
        "lon": 171.6779428668428,
        "alt_km": 828.0841556090973,
        "timestamp": "2025-12-17T15:50:09.419653+00:00",
        "meta_object_name": "METOP-C",
        "meta_object_id": "2018-087A",
        "meta_epoch": "2025-12-17T07:50:16.395360",
        "meta_mean_motion": 14.21486127,
        "meta_eccentricity": 0.00010299,
        "meta_inclination": 98.6925,
        "meta_ra_of_asc_node": 49.0259,
        "meta_arg_of_pericenter": 30.8333,
        "meta_mean_anomaly": 329.2905,
        "meta_ephemeris_type": 0,
        "meta_classification_type": "U",
        "meta_norad_cat_id": 43689,
        "meta_element_set_no": 999,
        "meta_rev_at_epoch": 36899,
        "meta_bstar": 7.4840284e-05,
        "meta_mean_motion_dot": 1.2e-06,
        "meta_mean_motion_ddot": 0,
        "tle_line1": "1 43689U 18087A   25351.32657865  .00000120  00000+0  74840-4 0  9991",
        "tle_line2": "2 43689  98.6925  49.0259 0001029  30.8333 329.2905 14.21486127368993"
      },
      "geometry": {
        "type": "Point",
        "coordinates": [
          171.6779428668428,
          -79.73836293478008
        ]
      }
    }
  ]
}